#dP2022  7 26  0  0  0.00000000      96 __u+U ITR00 EXT  IAC
## 2220 172800.00000000   900.00000000 59786 0.0000000000000
+  116   C06C07C08C09C10C11C12C13C14C16C19C20C21C22C23C24C25
+        C26C27C28C29C30C32C33C34C35C36C37C38C39C40C41C42C43
+        C44C45C46E01E02E03E04E05E07E08E09E10E11E12E13E14E15
+        E18E19E21E24E25E26E27E30E31E33E34E36G01G02G03G04G05
+        G06G07G08G09G10G11G12G13G14G15G16G17G18G19G20G21G22
+        G23G24G25G26G27G28G29G30G31G32J02J03R01R02R03R04R05
+        R07R08R09R11R12R13R14R15R17R18R19R20R21R24  0  0  0
++         0  0  0  0  0  0  0  0  0  0  0  0  0  0  0  0  0
++         0  0  0  0  0  0  0  0  0  0  0  0  0  0  0  0  0
++         0  0  0  0  0  0  0  0  0  0  0  0  0  0  0  0  0
++         0  0  0  0  0  0  0  0  0  0  0  0  0  0  0  0  0
++         0  0  0  0  0  0  0  0  0  0  0  0  0  0  0  0  0
++         0  0  0  0  0  0  0  0  0  0  0  0  0  0  0  0  0
++         0  0  0  0  0  0  0  0  0  0  0  0  0  0  0  0  0
%c M  cc GPS ccc cccc cccc cccc cccc ccccc ccccc ccccc ccccc
%c cc cc ccc ccc cccc cccc cccc cccc ccccc ccccc ccccc ccccc
%f  0.0000000  0.000000000  0.00000000000  0.000000000000000
%f  0.0000000  0.000000000  0.00000000000  0.000000000000000
%i    0    0    0    0      0      0      0      0         0
%i    0    0    0    0      0      0      0      0         0
/* IAC                                ULTRA-RAPID PREDICTION
/* S/V CLOCKS ARE ALIGNED TO GNSS TIME                      
/* G:C1WC2W R:C1PC2P E:C1XC5X C:C2IC6I J:C1CC2S             
/* PCV:IGS14_2215 OL/AL:FES2004  NONE     YN ORB:CoN CLK:CoN
*  2022 07 26 19 15  0.00000000
PC06 -16195.917122  37661.750736   9317.780548    477.221551
PC07  -1852.259004  34190.556710  24736.181438   -481.737739
PC08 -11150.125693  20034.885887 -35418.915199    419.095396
PC09 -10786.506529  36785.131784  17346.767815   -915.443854
PC10   4230.586147  36846.320100  20793.868068    114.868422
PC11    781.890387  21899.169721 -17241.743234   -506.851661
PC12 -12406.328335  24964.932814  -1475.243484   -567.358918
PC13  -5077.424886  22098.942897 -35449.585588     35.169501
PC14  11942.951281  24776.777169  -4887.122009    559.610538
PC16 -17836.041204  37431.088286   6977.928446    143.354756
PC19 -17392.890633 -21331.834109  -4505.405410   -294.342951
PC20  -5866.281943 -24444.117875  12090.667061   -964.302413
PC21  -9988.548771  13060.392113 -22538.855965    -61.126235
PC22 -19352.173443  -5718.650227 -19265.384532   -963.253310
PC23  27803.595839    535.481641   2348.710113   -951.705275
PC24  -3093.681411  16302.917170  22437.230355   -967.709243
PC25  18911.967682  11135.570064  17222.255517   -701.914522
PC26 -20365.931654  12019.480926  14834.574986    704.005001
PC27  16847.610344 -21111.804672  -7057.156541    760.288090
PC28  18591.540893  -5138.867050 -20164.793442     94.547066
PC29  -9760.992137 -14482.801107  21753.798854    586.990657
PC30   4991.226220 -25681.623222   9723.653985    501.514153
PC32   9989.209576 -13046.688792  22565.094148   -131.545215
PC33  17511.077950  21285.364868   4437.009064   -259.653866
PC34  -4157.559443  25437.803745 -10688.373715   -350.079391
PC35 -18209.393516   4432.334911  20655.359019    383.849585
PC36 -18187.366616 -11809.157679 -17534.149359   -971.153252
PC37  21537.618983 -10950.343175 -13925.174738   -922.106335
PC38 -19397.473652  20763.190831 -31191.887793     12.860563
PC39 -19721.898519  37140.819924    261.868149     -0.118085
PC40  -5249.351859  30396.269086  28825.899524     -1.218993
PC41  19544.999089   6154.404213  18994.292025   -113.189718
PC42   5052.686318  24207.959398 -12913.406794     -3.663007
PC43   9329.177504  15208.838286 -21464.705801      5.154573
PC44 -16167.126381  21563.289758   7171.426174    736.686469
PC45 -27842.311630   -273.401476  -2005.163383    819.066192
PC46   1117.999271 -16207.574671 -22678.156247   -453.003213
PE01  25382.281188  15061.375000   2260.521190   -522.722622
PE02 -25464.749539 -14958.527919  -2071.651377    314.439383
PE03 -15051.148028 -15351.464712 -20340.255128   -583.045429
PE04  16419.794688  -6629.261527  23726.629663  -1079.941610
PE05  -4792.506456 -28791.441087  -4906.595860   -159.315494
PE07  -8073.981685  25283.195865 -13112.428809   -691.020440
PE08 -16220.589761   6882.853943 -23784.093326   -570.442913
PE09   7944.876893 -25268.027261  13199.363894   -601.257980
PE10  24305.933190 -16836.996154   1267.165644   -503.205225
PE11  18130.863324 -20475.082050  11318.066470   2868.070915
PE12  26363.474181 -10616.666297  -8305.102357    -82.610599
PE13 -18642.115300  20351.922716 -10701.850613    429.986394
PE14   -608.865459  30562.891691  -3515.159423  -1767.653516
PE15 -26312.892488  10585.108233   8470.045361    730.812762
PE18   8135.308831 -23877.302722  -5926.027267  -1168.113263
PE19  14022.666838  17852.180302  19003.875521  -4983.044870
PE21  12160.019482  20146.009790  17963.406718   -748.189273
PE24  10133.862751 -13491.465410 -24325.774124   -746.481293
PE25 -11888.053387 -20137.175766 -18136.606461   -582.416056
PE26    897.624755  17827.988048 -23617.509800  -1422.593449
PE27  -8955.808007  14118.330508  24434.648853   -353.880178
PE30 -25027.130365   -958.064163  15780.588063   -704.066598
PE31  24599.073429    169.429387 -16451.765401   -500.586137
PE33  18422.165935   5372.816278 -22541.833031   -454.356370
PE34 -18581.034317  -5172.417507  22443.734749   -487.814051
PE36    107.494683 -18093.205020  23421.133512   -407.800528
PG01  -4392.663629  16937.361847 -20179.801822    313.820354
PG02  19754.007376 -17012.738623   6198.273812   -650.614280
PG03   5082.275859  18426.018930 -18609.476506   -317.258330
PG04  -1445.602045  26435.264889   1369.745278   -141.103918
PG05   9107.717398 -12131.894742  21634.249792    -90.582098
PG06  24252.223502  -4908.765345  -9699.134741    400.950887
PG07  12553.203916  10747.162106  21291.209170    317.715876
PG08  -5624.332060  24825.037678   6872.745476    -77.829022
PG09   7415.585452  22639.514209  11638.871845   -314.983572
PG10 -23693.792899 -10967.481723  -5534.876432   -505.928849
PG11  23347.109350 -12326.623872   2753.845528    -10.367013
PG12  -1309.708922 -18055.588523 -19737.967418   -252.540756
PG13  12964.161953 -18745.020842  13326.883688    356.027480
PG14  23058.729134  12552.300239  -4375.002566   -111.169693
PG15   2818.739113 -25374.127066   6290.477164    -42.292473
PG16 -15166.256420   6171.416402  20732.842579   -517.479615
PG17  13095.936834   8901.742811 -20880.449181    641.407714
PG18 -12229.212250 -10225.146728  21255.860313    101.342076
PG19  15210.194000  -1115.521201 -21974.974411    188.923410
PG20  19630.938142  -4791.121699  17122.863482    499.964326
PG21 -13010.320094  18438.296615 -12790.191519    160.921940
PG22 -15280.721536   4540.055433 -20797.598034    299.068374
PG23 -20480.401137 -16359.383774   4646.123599    -34.577671
PG24   7246.243703 -19155.861627 -16994.544601    186.387995
PG25 -14552.271972 -19226.555682 -11721.451733    353.727084
PG26 -22056.780372    -38.316155  14931.522019    220.399596
PG27 -12407.595958  15877.199880  16880.294181    220.892678
PG28  22113.259170   6759.087545 -12346.399462    337.524488
PG29  -5121.914875 -23021.967080  12085.544118   -537.173129
PG30  21000.114078   3097.076329  16209.335905   -534.800229
PG31 -25072.844941   6183.445217  -7310.764246   -187.276776
PG32 -14689.670797  -5588.691211 -21285.142577   -186.752744
PJ02 -28146.817773  20682.663722  28615.563895     -2.208151
PJ03 -32587.707054  26759.360473   7653.579060     -0.281096
PR01  -8669.816335   7477.429932 -22795.516018     12.122832
PR02   2500.120482  22102.659695 -12386.733383    525.240370
PR03  11464.564840  22252.718084   4797.591359     60.862352
PR04  13623.836391  10169.658738  19039.946215    151.947667
PR05   8470.592647  -7553.762026  22856.297381     96.877242
PR07 -11662.295667 -22052.038286  -5405.584141     38.435889
PR08 -13724.035785 -10027.238150 -18975.279666    -66.400055
PR09   3032.121150 -11003.774943 -22792.876800     67.882196
PR11 -24959.482717  -4401.494931  -2788.066344     32.232184
PR12 -20080.376821   4612.908430  15079.034007     19.540854
PR13  -4519.469698  10475.689901  22805.595254    -25.019296
PR14  15498.416395  10491.844691  17360.575121     24.761558
PR15  25077.244389   4302.962494   1893.607284     94.512544
PR17   2517.393910  12875.207586 -21883.424552    546.940012
PR18  13750.420135  -1800.679226 -21411.658093     34.537092
PR19  18253.556312 -14150.655391 -10823.294979   -197.689567
PR20  11848.330515 -20500.213307   9534.877087    -75.314140
PR21  -3635.873110 -11621.343794  22401.621067   -320.543413
PR24 -10715.411274  20855.489523 -10060.616197    105.630061
EOF
